start=new Date('2022-12-05T00:00:00.000Z').valueOf();
sats=[{"TLE_LINE1":"1 50818U 22001R   22338.76510756 -.00000057  00000-0  14509-4 0  9998","DECAY_DATE":null,"OBJECT_NAME":"STARLINK-3336","EPHEMERIS_TYPE":"0","ELEMENT_SET_NO":"999","PERIOD":"95.437","OBJECT_ID":"2022-001R","NORAD_CAT_ID":"50818","REV_AT_EPOCH":"5061","MEAN_ANOMALY":"313.1465","GP_ID":"219555565","FILE":"3681494","APOAPSIS":"541.434","EPOCH":"2022-12-04T18:21:45.293184","INCLINATION":"53.2163","TIME_SYSTEM":"UTC","MEAN_MOTION":"15.08842449","LAUNCH_DATE":"2022-01-06","MEAN_MOTION_DDOT":"0.0000000000000","MEAN_ELEMENT_THEORY":"SGP4","CLASSIFICATION_TYPE":"U","RCS_SIZE":"LARGE","ECCENTRICITY":"0.00024520","OBJECT_TYPE":"PAYLOAD","BSTAR":"0.00001450900000","RA_OF_ASC_NODE":"115.3787","ARG_OF_PERICENTER":"46.9732","PERIAPSIS":"538.042","COUNTRY_CODE":"US","TLE_LINE2":"2 50818  53.2163 115.3787 0002452  46.9732 313.1465 15.08842449 50610","SITE":"AFETR","SEMIMAJOR_AXIS":"6917.873","MEAN_MOTION_DOT":"-0.00000057","CENTER_NAME":"EARTH","REF_FRAME":"TEME"},{"EPHEMERIS_TYPE":"0","DECAY_DATE":null,"TLE_LINE1":"1 50819U 22001S   22338.57374630 -.00002527  00000-0 -14064-3 0  9997","OBJECT_NAME":"STARLINK-3327","NORAD_CAT_ID":"50819","PERIOD":"95.437","ELEMENT_SET_NO":"999","OBJECT_ID":"2022-001S","GP_ID":"219555806","FILE":"3681494","MEAN_ANOMALY":"304.0966","REV_AT_EPOCH":"5059","MEAN_MOTION":"15.08847273","TIME_SYSTEM":"UTC","INCLINATION":"53.2167","APOAPSIS":"541.612","EPOCH":"2022-12-04T13:46:11.680320","MEAN_ELEMENT_THEORY":"SGP4","MEAN_MOTION_DDOT":"0.0000000000000","LAUNCH_DATE":"2022-01-06","ECCENTRICITY":"0.00027300","RCS_SIZE":"LARGE","CLASSIFICATION_TYPE":"U","OBJECT_TYPE":"PAYLOAD","PERIAPSIS":"537.835","ARG_OF_PERICENTER":"56.0286","COUNTRY_CODE":"US","BSTAR":"-0.00014064000000","RA_OF_ASC_NODE":"116.2571","CENTER_NAME":"EARTH","MEAN_MOTION_DOT":"-0.00002527","REF_FRAME":"TEME","SEMIMAJOR_AXIS":"6917.858","TLE_LINE2":"2 50819  53.2167 116.2571 0002730  56.0286 304.0966 15.08847273 50593","SITE":"AFETR"},{"GP_ID":"219554062","FILE":"3681494","MEAN_ANOMALY":"309.6118","REV_AT_EPOCH":"5062","MEAN_MOTION":"15.08838887","INCLINATION":"53.2149","TIME_SYSTEM":"UTC","EPOCH":"2022-12-04T19:41:14.370144","APOAPSIS":"541.851","EPHEMERIS_TYPE":"0","DECAY_DATE":null,"TLE_LINE1":"1 50820U 22001T   22338.82030521  .00000585  00000-0  54912-4 0  9992","OBJECT_NAME":"STARLINK-3339","NORAD_CAT_ID":"50820","PERIOD":"95.438","ELEMENT_SET_NO":"999","OBJECT_ID":"2022-001T","PERIAPSIS":"537.646","ARG_OF_PERICENTER":"50.5142","COUNTRY_CODE":"US","BSTAR":"0.00005491200000","RA_OF_ASC_NODE":"115.1483","CENTER_NAME":"EARTH","MEAN_MOTION_DOT":"0.00000585","REF_FRAME":"TEME","SEMIMAJOR_AXIS":"6917.884","SITE":"AFETR","TLE_LINE2":"2 50820  53.2149 115.1483 0003039  50.5142 309.6118 15.08838887 50623","MEAN_ELEMENT_THEORY":"SGP4","MEAN_MOTION_DDOT":"0.0000000000000","LAUNCH_DATE":"2022-01-06","ECCENTRICITY":"0.00030390","RCS_SIZE":"LARGE","CLASSIFICATION_TYPE":"U","OBJECT_TYPE":"PAYLOAD"},{"GP_ID":"219554313","FILE":"3681494","REV_AT_EPOCH":"5060","MEAN_ANOMALY":"305.9180","MEAN_MOTION":"15.08855198","EPOCH":"2022-12-04T16:09:15.969600","APOAPSIS":"541.393","TIME_SYSTEM":"UTC","INCLINATION":"53.2158","EPHEMERIS_TYPE":"0","TLE_LINE1":"1 50821U 22001U   22338.67310150 -.00000519  00000-0 -14474-4 0  9993","DECAY_DATE":null,"OBJECT_NAME":"STARLINK-3346","NORAD_CAT_ID":"50821","ELEMENT_SET_NO":"999","PERIOD":"95.437","OBJECT_ID":"2022-001U","ARG_OF_PERICENTER":"54.2040","PERIAPSIS":"538.005","COUNTRY_CODE":"US","BSTAR":"-0.00001447400000","RA_OF_ASC_NODE":"115.7987","MEAN_MOTION_DOT":"-0.00000519","CENTER_NAME":"EARTH","REF_FRAME":"TEME","SITE":"AFETR","TLE_LINE2":"2 50821  53.2158 115.7987 0002449  54.2040 305.9180 15.08855198 50601","SEMIMAJOR_AXIS":"6917.834","MEAN_MOTION_DDOT":"0.0000000000000","MEAN_ELEMENT_THEORY":"SGP4","LAUNCH_DATE":"2022-01-06","CLASSIFICATION_TYPE":"U","RCS_SIZE":"LARGE","ECCENTRICITY":"0.00024490","OBJECT_TYPE":"PAYLOAD"},{"EPHEMERIS_TYPE":"0","OBJECT_NAME":"STARLINK-3343","DECAY_DATE":null,"TLE_LINE1":"1 50822U 22001V   22338.68046463 -.00003853  00000-0 -22398-3 0  9995","NORAD_CAT_ID":"50822","OBJECT_ID":"2022-001V","PERIOD":"95.437","ELEMENT_SET_NO":"999","FILE":"3681494","GP_ID":"219555066","MEAN_ANOMALY":"297.6681","REV_AT_EPOCH":"5060","MEAN_MOTION":"15.08854627","INCLINATION":"53.2149","TIME_SYSTEM":"UTC","APOAPSIS":"541.746","EPOCH":"2022-12-04T16:19:52.144032","MEAN_MOTION_DDOT":"0.0000000000000","MEAN_ELEMENT_THEORY":"SGP4","LAUNCH_DATE":"2022-01-06","OBJECT_TYPE":"PAYLOAD","ECCENTRICITY":"0.00029570","RCS_SIZE":"LARGE","CLASSIFICATION_TYPE":"U","COUNTRY_CODE":"US","PERIAPSIS":"537.655","ARG_OF_PERICENTER":"62.4612","RA_OF_ASC_NODE":"115.7765","BSTAR":"-0.00022398000000","REF_FRAME":"TEME","CENTER_NAME":"EARTH","MEAN_MOTION_DOT":"-0.00003853","SEMIMAJOR_AXIS":"6917.836","SITE":"AFETR","TLE_LINE2":"2 50822  53.2149 115.7765 0002957  62.4612 297.6681 15.08854627 50605"},{"SEMIMAJOR_AXIS":"6917.901","SITE":"AFETR","TLE_LINE2":"2 50823  53.2182 115.9317 0001972  58.2509 301.8675 15.08833344 50606","REF_FRAME":"TEME","CENTER_NAME":"EARTH","MEAN_MOTION_DOT":"0.00002992","RA_OF_ASC_NODE":"115.9317","BSTAR":"0.00020606000000","COUNTRY_CODE":"US","PERIAPSIS":"538.402","ARG_OF_PERICENTER":"58.2509","OBJECT_TYPE":"PAYLOAD","ECCENTRICITY":"0.00019720","RCS_SIZE":"LARGE","CLASSIFICATION_TYPE":"U","LAUNCH_DATE":"2022-01-06","MEAN_MOTION_DDOT":"0.0000000000000","MEAN_ELEMENT_THEORY":"SGP4","TIME_SYSTEM":"UTC","INCLINATION":"53.2182","APOAPSIS":"541.130","EPOCH":"2022-12-04T15:32:10.538016","MEAN_MOTION":"15.08833344","MEAN_ANOMALY":"301.8675","REV_AT_EPOCH":"5060","FILE":"3681494","GP_ID":"219555307","OBJECT_ID":"2022-001W","PERIOD":"95.438","ELEMENT_SET_NO":"999","NORAD_CAT_ID":"50823","OBJECT_NAME":"STARLINK-3334","DECAY_DATE":null,"TLE_LINE1":"1 50823U 22001W   22338.64734419  .00002992  00000-0  20606-3 0  9998","EPHEMERIS_TYPE":"0"},{"MEAN_MOTION_DOT":"-0.00000251","CENTER_NAME":"EARTH","REF_FRAME":"TEME","SITE":"AFETR","TLE_LINE2":"2 50824  53.2170 115.2028 0002530  51.8681 308.2539 15.08844028 50620","SEMIMAJOR_AXIS":"6917.868","ARG_OF_PERICENTER":"51.8681","PERIAPSIS":"537.983","COUNTRY_CODE":"US","BSTAR":"0.00000236810000","RA_OF_ASC_NODE":"115.2028","CLASSIFICATION_TYPE":"U","RCS_SIZE":"LARGE","ECCENTRICITY":"0.00025300","OBJECT_TYPE":"PAYLOAD","MEAN_ELEMENT_THEORY":"SGP4","MEAN_MOTION_DDOT":"0.0000000000000","LAUNCH_DATE":"2022-01-06","MEAN_MOTION":"15.08844028","APOAPSIS":"541.483","EPOCH":"2022-12-04T19:25:20.267040","TIME_SYSTEM":"UTC","INCLINATION":"53.2170","GP_ID":"219554562","FILE":"3681494","REV_AT_EPOCH":"5062","MEAN_ANOMALY":"308.2539","NORAD_CAT_ID":"50824","ELEMENT_SET_NO":"999","PERIOD":"95.437","OBJECT_ID":"2022-001X","EPHEMERIS_TYPE":"0","TLE_LINE1":"1 50824U 22001X   22338.80926235 -.00000251  00000-0  23681-5 0  9991","DECAY_DATE":null,"OBJECT_NAME":"STARLINK-3340"},{"EPHEMERIS_TYPE":"0","OBJECT_NAME":"STARLINK-3332","TLE_LINE1":"1 50825U 22001Y   22338.81662999 -.00000161  00000-0  80210-5 0  9998","DECAY_DATE":null,"NORAD_CAT_ID":"50825","OBJECT_ID":"2022-001Y","ELEMENT_SET_NO":"999","PERIOD":"95.438","FILE":"3681494","GP_ID":"219554813","REV_AT_EPOCH":"5062","MEAN_ANOMALY":"306.0194","MEAN_MOTION":"15.08839645","APOAPSIS":"541.740","EPOCH":"2022-12-04T19:35:56.831136","INCLINATION":"53.2157","TIME_SYSTEM":"UTC","MEAN_ELEMENT_THEORY":"SGP4","MEAN_MOTION_DDOT":"0.0000000000000","LAUNCH_DATE":"2022-01-06","OBJECT_TYPE":"PAYLOAD","CLASSIFICATION_TYPE":"U","RCS_SIZE":"LARGE","ECCENTRICITY":"0.00028810","COUNTRY_CODE":"US","ARG_OF_PERICENTER":"54.1065","PERIAPSIS":"537.753","RA_OF_ASC_NODE":"115.1619","BSTAR":"0.00000802100000","REF_FRAME":"TEME","MEAN_MOTION_DOT":"-0.00000161","CENTER_NAME":"EARTH","SITE":"AFETR","TLE_LINE2":"2 50825  53.2157 115.1619 0002881  54.1065 306.0194 15.08839645 50624","SEMIMAJOR_AXIS":"6917.881"},{"ARG_OF_PERICENTER":"55.7436","PERIAPSIS":"537.968","COUNTRY_CODE":"US","BSTAR":"0.00010661000000","RA_OF_ASC_NODE":"115.8455","MEAN_MOTION_DOT":"0.00001409","CENTER_NAME":"EARTH","REF_FRAME":"TEME","SITE":"AFETR","TLE_LINE2":"2 50826  53.2171 115.8455 0002571  55.7436 304.3799 15.08839585 50604","SEMIMAJOR_AXIS":"6917.882","MEAN_MOTION_DDOT":"0.0000000000000","MEAN_ELEMENT_THEORY":"SGP4","LAUNCH_DATE":"2022-01-06","RCS_SIZE":"LARGE","CLASSIFICATION_TYPE":"U","ECCENTRICITY":"0.00025710","OBJECT_TYPE":"PAYLOAD","GP_ID":"219555566","FILE":"3681494","REV_AT_EPOCH":"5060","MEAN_ANOMALY":"304.3799","MEAN_MOTION":"15.08839585","APOAPSIS":"541.525","EPOCH":"2022-12-04T15:53:22.209504","INCLINATION":"53.2171","TIME_SYSTEM":"UTC","EPHEMERIS_TYPE":"0","TLE_LINE1":"1 50826U 22001Z   22338.66206261  .00001409  00000-0  10661-3 0  9994","DECAY_DATE":null,"OBJECT_NAME":"STARLINK-3337","NORAD_CAT_ID":"50826","ELEMENT_SET_NO":"999","PERIOD":"95.438","OBJECT_ID":"2022-001Z"},{"GP_ID":"219555807","FILE":"3681494","REV_AT_EPOCH":"5061","MEAN_ANOMALY":"305.1479","MEAN_MOTION":"15.08837209","APOAPSIS":"541.610","EPOCH":"2022-12-04T18:16:27.366240","TIME_SYSTEM":"UTC","INCLINATION":"53.2175","EPHEMERIS_TYPE":"0","TLE_LINE1":"1 50827U 22001AA  22338.76142785 -.00001179  00000-0 -55936-4 0  9997","DECAY_DATE":null,"OBJECT_NAME":"STARLINK-3329","NORAD_CAT_ID":"50827","ELEMENT_SET_NO":"999","PERIOD":"95.438","OBJECT_ID":"2022-001AA","ARG_OF_PERICENTER":"54.9765","PERIAPSIS":"537.898","COUNTRY_CODE":"US","BSTAR":"-0.00005593600000","RA_OF_ASC_NODE":"115.4147","MEAN_MOTION_DOT":"-0.00001179","CENTER_NAME":"EARTH","REF_FRAME":"TEME","TLE_LINE2":"2 50827  53.2175 115.4147 0002683  54.9765 305.1479 15.08837209 50619","SITE":"AFETR","SEMIMAJOR_AXIS":"6917.889","MEAN_MOTION_DDOT":"0.0000000000000","MEAN_ELEMENT_THEORY":"SGP4","LAUNCH_DATE":"2022-01-06","CLASSIFICATION_TYPE":"U","RCS_SIZE":"LARGE","ECCENTRICITY":"0.00026830","OBJECT_TYPE":"PAYLOAD"}];
